[{"OBJECT_NAME":"STARLINK-34743","OBJECT_ID":"2025-158F","EPOCH":"2026-03-09T14:42:33.702912","MEAN_MOTION":15.05642869,"ECCENTRICITY":0.0002568,"INCLINATION":97.6015,"RA_OF_ASC_NODE":294.0011,"ARG_OF_PERICENTER":68.4044,"MEAN_ANOMALY":291.7456,"EPHEMERIS_TYPE":0,"CLASSIFICATION_TYPE":"U","NORAD_CAT_ID":64937,"ELEMENT_SET_NO":999,"REV_AT_EPOCH":3534,"BSTAR":0.00045516,"MEAN_MOTION_DOT":6.512e-5,"MEAN_MOTION_DDOT":0},{"OBJECT_NAME":"HAMSAT (VO-52)","OBJECT_ID":"2005-017B","EPOCH":"2026-03-09T22:34:09.009120","MEAN_MOTION":15.08773202,"ECCENTRICITY":0.00200128,"INCLINATION":97.9995,"RA_OF_ASC_NODE":87.8294,"ARG_OF_PERICENTER":17.3795,"MEAN_ANOMALY":342.8113,"EPHEMERIS_TYPE":0,"CLASSIFICATION_TYPE":"U","NORAD_CAT_ID":28650,"ELEMENT_SET_NO":999,"REV_AT_EPOCH":13179,"BSTAR":0.00045282519,"MEAN_MOTION_DOT":7.08e-5,"MEAN_MOTION_DDOT":0}]
